TOMORROW-S1             
1 60479U 24149M   26196.20568883  .00004230  00000+0  13478-3 0  9994
2 60479  97.3748 276.5954 0004046 131.1920 228.9672 15.33092764106389
FLOCK 4BE-18            
1 60480U 24149N   26196.17393004  .00007676  00000+0  17784-3 0  9994
2 60480  97.3734 280.2124 0005057 145.2938 214.8640 15.42710790106627
FLOCK 4BE-7             
1 60481U 24149P   26196.53166872  .00015411  00000+0  36969-3 0  9998
2 60481  97.3759 279.8639 0004289 147.8981 212.2528 15.41466127106619
TOMORROW-S2             
1 60485U 24149T   26196.17020212  .00004300  00000+0  13676-3 0  9994
2 60485  97.3816 277.0762 0003824 149.2725 210.8742 15.33140392106379
FLOCK 4BE-36            
1 60486U 24149U   26196.19525348  .00010648  00000+0  23910-3 0  9991
2 60486  97.3746 280.9745 0004767 152.9769 207.1728 15.43542662106675
FLOCK 4BE-25            
1 60487U 24149V   26196.17264326  .00008283  00000+0  21283-3 0  9999
2 60487  97.3799 279.5254 0003546 142.3173 217.8322 15.39544555106541
FLOCK 4BE-31            
1 60488U 24149W   26196.19906453  .00013655  00000+0  28976-3 0  9991
2 60488  97.3800 281.9212 0003772 151.2708 208.8749 15.45159751106708
FLOCK 4BE-20            
1 60489U 24149X   26196.21478742  .00008882  00000+0  23350-3 0  9997
2 60489  97.3694 278.3768 0005036 154.2664 205.8833 15.38813036106521
FLOCK 4BE-23            
1 60490U 24149Y   26196.21267662  .00007799  00000+0  20833-3 0  9995
2 60490  97.3780 278.7650 0004661 156.6253 203.5205 15.38364990106502
FLOCK 4BE-17            
1 60492U 24149AA  26196.22256232  .00009253  00000+0  22961-3 0  9990
2 60492  97.3774 279.8271 0004444 146.7404 213.4122 15.40570981106572
NUSAT-50 (NANCY ROMAN)  
1 60493U 24149AB  26196.15857753  .00005216  00000+0  18043-3 0  9999
2 60493  97.3786 277.2268 0004867 101.9212 258.2575 15.30318696106406
FLOCK 4BE-22            
1 60494U 24149AC  26196.17869588  .00009655  00000+0  22856-3 0  9999
2 60494  97.3736 280.0195 0004700 154.0714 206.0769 15.41985760106618
FLOCK 4BE-34            
1 60495U 24149AD  26196.19625887  .00009716  00000+0  23026-3 0  9992
2 60495  97.3783 280.8775 0004945 161.2158 198.9273 15.41951345106640
TYCHE                   
1 60496U 24149AE  26196.20270403  .00002335  00000+0  94115-4 0  9993
2 60496  97.3751 273.6416 0003123 165.0197 195.1134 15.25829988106172
FLOCK 4BE-32            
1 60497U 24149AF  26196.53455554  .00011865  00000+0  27018-3 0  9997
2 60497  97.3720 280.7855 0004957 157.8810 202.2653 15.43093711106704
NUSAT-48 (HENRIETTA LE*)
1 60498U 24149AG  26196.21298218  .00004795  00000+0  16631-3 0  9998
2 60498  97.3920 277.5729 0004771 158.7340 201.4100 15.30274788106421
NUSAT-49 (KLARA DAN VO*)
1 60500U 24149AJ  26196.18946143  .00002557  00000+0  91264-4 0  9995
2 60500  97.3783 277.2885 0002688 166.4969 193.6344 15.29782935106417
FLOCK 4BE-11            
1 60501U 24149AK  26196.19033215  .00011062  00000+0  24552-3 0  9990
2 60501  97.3700 280.6940 0004913 158.2549 201.8909 15.43877499106676
YAM-7                   
1 60504U 24149AN  26196.20852779  .00004134  00000+0  13557-3 0  9994
2 60504  97.3782 276.3496 0003581 167.8758 192.2571 15.32182088106348
FLOCK 4BE-24            
1 60505U 24149AP  26196.17402388  .00012265  00000+0  26994-3 0  9991
2 60505  97.3713 280.9459 0005175 170.2975 189.8374 15.44100532106680
LUR-1                   
1 60506U 24149AQ  26196.16500721  .00003697  00000+0  12816-3 0  9998
2 60506  97.3738 274.7950 0003954 183.9192 176.2018 15.30445783106253
TANAGER-1               
1 60507U 24149AR  26196.21387050  .00000191  00000+0  60546-5 0  9994
2 60507  97.2324 290.3469 0001552 136.7209 223.4162 15.43902804107364
EAGLEEYE                
1 60508U 24149AS  26196.21099573  .00084108  00000+0  52186-3 0  9994
2 60508  97.3718 291.2157 0005060 185.1759 174.9455 15.76762821107345
FLOCK 4BE-29            
1 60509U 24149AT  26196.22973736  .00027126  00000+0  56662-3 0  9998
2 60509  97.3812 282.5457 0003465 176.1077 184.0199 15.45480043106746
TRANSPORTER-11 OBJECT AU
1 60510U 24149AU  26196.18202897  .00008836  00000+0  21650-3 0  9994
2 60510  97.3731 280.1399 0004203 167.7744 192.3605 15.40973467106628
FLOCK 4BE-2             
1 60511U 24149AV  26196.51472436  .00046584  00000+0  66985-3 0  9992
2 60511  97.3833 284.6846 0005350 172.8887 187.2444 15.55928343106901
FLOCK 4BE-13            
1 60512U 24149AW  26196.18501465  .00008753  00000+0  20310-3 0  9999
2 60512  97.3723 280.9005 0005089 155.7063 204.4426 15.42616506106689
