OBJECT_NAME,OBJECT_ID,EPOCH,MEAN_MOTION,ECCENTRICITY,INCLINATION,RA_OF_ASC_NODE,ARG_OF_PERICENTER,MEAN_ANOMALY,EPHEMERIS_TYPE,CLASSIFICATION_TYPE,NORAD_CAT_ID,ELEMENT_SET_NO,REV_AT_EPOCH,BSTAR,MEAN_MOTION_DOT,MEAN_MOTION_DDOT
TOMORROW-S1,2024-149M,2026-07-15T04:56:11.514912,15.33092764,.00040462,97.3748,276.5954,131.1920,228.9672,0,U,60479,999,10638,.13477577E-3,.423E-4,0
FLOCK 4BE-18,2024-149N,2026-07-15T04:10:27.555456,15.42710790,.00050578,97.3734,280.2124,145.2938,214.8640,0,U,60480,999,10662,.17783804E-3,.7676E-4,0
FLOCK 4BE-7,2024-149P,2026-07-15T12:45:36.177408,15.41466127,.00042895,97.3759,279.8639,147.8981,212.2528,0,U,60481,999,10661,.36968564E-3,.15411E-3,0
TOMORROW-S2,2024-149T,2026-07-15T04:05:05.463168,15.33140392,.00038246,97.3816,277.0762,149.2725,210.8742,0,U,60485,999,10637,.13676225E-3,.43E-4,0
FLOCK 4BE-36,2024-149U,2026-07-15T04:41:09.900672,15.43542662,.00047672,97.3746,280.9745,152.9769,207.1728,0,U,60486,999,10667,.23910192E-3,.10648E-3,0
FLOCK 4BE-25,2024-149V,2026-07-15T04:08:36.377664,15.39544555,.00035469,97.3799,279.5254,142.3173,217.8322,0,U,60487,999,10654,.21282727E-3,.8283E-4,0
FLOCK 4BE-31,2024-149W,2026-07-15T04:46:39.175392,15.45159751,.00037725,97.3800,281.9212,151.2708,208.8749,0,U,60488,999,10670,.28975948E-3,.13655E-3,0
FLOCK 4BE-20,2024-149X,2026-07-15T05:09:17.633088,15.38813036,.00050367,97.3694,278.3768,154.2664,205.8833,0,U,60489,999,10652,.23350148E-3,.8882E-4,0
FLOCK 4BE-23,2024-149Y,2026-07-15T05:06:15.259968,15.38364990,.00046619,97.3780,278.7650,156.6253,203.5205,0,U,60490,999,10650,.20832708E-3,.7799E-4,0
FLOCK 4BE-17,2024-149AA,2026-07-15T05:20:29.384448,15.40570981,.00044448,97.3774,279.8271,146.7404,213.4122,0,U,60492,999,10657,.22960744E-3,.9253E-4,0
NUSAT-50 (NANCY ROMAN),2024-149AB,2026-07-15T03:48:21.098592,15.30318696,.00048678,97.3786,277.2268,101.9212,258.2575,0,U,60493,999,10640,.18042865E-3,.5216E-4,0
FLOCK 4BE-22,2024-149AC,2026-07-15T04:17:19.324032,15.41985760,.00047008,97.3736,280.0195,154.0714,206.0769,0,U,60494,999,10661,.22855525E-3,.9655E-4,0
FLOCK 4BE-34,2024-149AD,2026-07-15T04:42:36.766368,15.41951345,.00049457,97.3783,280.8775,161.2158,198.9273,0,U,60495,999,10664,.23025621E-3,.9716E-4,0
TYCHE,2024-149AE,2026-07-15T04:51:53.628192,15.25829988,.00031238,97.3751,273.6416,165.0197,195.1134,0,U,60496,999,10617,.94115261E-4,.2335E-4,0
FLOCK 4BE-32,2024-149AF,2026-07-15T12:49:45.598656,15.43093711,.00049577,97.3720,280.7855,157.8810,202.2653,0,U,60497,999,10670,.27017655E-3,.11865E-3,0
NUSAT-48 (HENRIETTA LEAVITT),2024-149AG,2026-07-15T05:06:41.660352,15.30274788,.00047718,97.3920,277.5729,158.7340,201.4100,0,U,60498,999,10642,.16631348E-3,.4795E-4,0
NUSAT-49 (KLARA DAN VON NEUMANN),2024-149AJ,2026-07-15T04:32:49.467552,15.29782935,.00026888,97.3783,277.2885,166.4969,193.6344,0,U,60500,999,10641,.91263762E-4,.2557E-4,0
FLOCK 4BE-11,2024-149AK,2026-07-15T04:34:04.697760,15.43877499,.00049137,97.3700,280.6940,158.2549,201.8909,0,U,60501,999,10667,.24552401E-3,.11062E-3,0
YAM-7,2024-149AN,2026-07-15T05:00:16.801056,15.32182088,.00035819,97.3782,276.3496,167.8758,192.2571,0,U,60504,999,10634,.13557438E-3,.4134E-4,0
FLOCK 4BE-24,2024-149AP,2026-07-15T04:10:35.663232,15.44100532,.00051756,97.3713,280.9459,170.2975,189.8374,0,U,60505,999,10668,.26993731E-3,.12265E-3,0
LUR-1,2024-149AQ,2026-07-15T03:57:36.622944,15.30445783,.00039545,97.3738,274.7950,183.9192,176.2018,0,U,60506,999,10625,.12816288E-3,.3697E-4,0
TANAGER-1,2024-149AR,2026-07-15T05:07:58.411200,15.43902804,.00015526,97.2324,290.3469,136.7209,223.4162,0,U,60507,999,10736,.6054618E-5,.191E-5,0
EAGLEEYE,2024-149AS,2026-07-15T05:03:50.031072,15.76762821,.00050607,97.3718,291.2157,185.1759,174.9455,0,U,60508,999,10734,.52185955E-3,.84108E-3,0
FLOCK 4BE-29,2024-149AT,2026-07-15T05:30:49.307904,15.45480043,.00034659,97.3812,282.5457,176.1077,184.0199,0,U,60509,999,10674,.56661745E-3,.27126E-3,0
TRANSPORTER-11 OBJECT AU,2024-149AU,2026-07-15T04:22:07.303008,15.40973467,.00042031,97.3731,280.1399,167.7744,192.3605,0,U,60510,999,10662,.21650483E-3,.8836E-4,0
FLOCK 4BE-2,2024-149AV,2026-07-15T12:21:12.184704,15.55928343,.00053508,97.3833,284.6846,172.8887,187.2444,0,U,60511,999,10690,.66985336E-3,.46584E-3,0
FLOCK 4BE-13,2024-149AW,2026-07-15T04:26:25.265760,15.42616506,.00050892,97.3723,280.9005,155.7063,204.4426,0,U,60512,999,10668,.20309902E-3,.8753E-4,0
